[{"OBJECT_NAME":"DAMPE","OBJECT_ID":"2015-078A","EPOCH":"2026-03-09T23:55:00.527232","MEAN_MOTION":15.30502084,"ECCENTRICITY":0.00138005,"INCLINATION":97.4588,"RA_OF_ASC_NODE":73.9866,"ARG_OF_PERICENTER":70.6942,"MEAN_ANOMALY":289.579,"EPHEMERIS_TYPE":0,"CLASSIFICATION_TYPE":"U","NORAD_CAT_ID":41173,"ELEMENT_SET_NO":999,"REV_AT_EPOCH":56937,"BSTAR":9.1158173e-5,"MEAN_MOTION_DOT":2.617e-5,"MEAN_MOTION_DDOT":0},{"OBJECT_NAME":"STARLINK-32776","OBJECT_ID":"2025-034D","EPOCH":"2026-03-09T21:30:36.557280","MEAN_MOTION":15.30199928,"ECCENTRICITY":0.00010789,"INCLINATION":53.158,"RA_OF_ASC_NODE":257.5021,"ARG_OF_PERICENTER":88.4513,"MEAN_ANOMALY":271.6611,"EPHEMERIS_TYPE":0,"CLASSIFICATION_TYPE":"U","NORAD_CAT_ID":63032,"ELEMENT_SET_NO":999,"REV_AT_EPOCH":5911,"BSTAR":0.0012685382,"MEAN_MOTION_DOT":0.000374,"MEAN_MOTION_DDOT":0}]
